start=new Date('2022-03-27T00:00:00.000Z').valueOf();
sats=[{"MEAN_ANOMALY":"304.5322","APOAPSIS":"548.542","PERIAPSIS":"545.856","OBJECT_TYPE":"PAYLOAD","FILE":"3375254","BSTAR":"0.00011877000000","SEMIMAJOR_AXIS":"6925.334","EPHEMERIS_TYPE":"0","TIME_SYSTEM":"UTC","CLASSIFICATION_TYPE":"U","COUNTRY_CODE":"US","OBJECT_ID":"2020-025BB","LAUNCH_DATE":"2020-04-22","TLE_LINE2":"2 45580  53.0534  90.4886 0001939  55.5850 304.5322 15.06404808107675","MEAN_MOTION":"15.06404808","ECCENTRICITY":"0.00019390","MEAN_ELEMENT_THEORY":"SGP4","ELEMENT_SET_NO":"999","REV_AT_EPOCH":"10767","DECAY_DATE":null,"RA_OF_ASC_NODE":"90.4886","PERIOD":"95.592","MEAN_MOTION_DOT":"0.00001488","NORAD_CAT_ID":"45580","CENTER_NAME":"EARTH","RCS_SIZE":"LARGE","TLE_LINE1":"1 45580U 20025BB  22085.35304665  .00001488  00000-0  11877-3 0  9998","ARG_OF_PERICENTER":"55.5850","INCLINATION":"53.0534","SITE":"AFETR","REF_FRAME":"TEME","MEAN_MOTION_DDOT":"0.0000000000000","OBJECT_NAME":"STARLINK-1333","EPOCH":"2022-03-26T08:28:23.230560","GP_ID":"199743104"},{"COUNTRY_CODE":"US","CLASSIFICATION_TYPE":"U","TIME_SYSTEM":"UTC","OBJECT_ID":"2020-025BC","LAUNCH_DATE":"2020-04-22","TLE_LINE2":"2 45581  53.0543  78.9844 0001678  57.6888 302.4263 15.06392141107863","APOAPSIS":"548.400","PERIAPSIS":"546.076","OBJECT_TYPE":"PAYLOAD","MEAN_ANOMALY":"302.4263","SEMIMAJOR_AXIS":"6925.373","EPHEMERIS_TYPE":"0","FILE":"3375650","BSTAR":"-0.00005430900000","TLE_LINE1":"1 45581U 20025BC  22085.68939415 -.00001090  00000-0 -54309-4 0  9991","ARG_OF_PERICENTER":"57.6888","CENTER_NAME":"EARTH","RCS_SIZE":"LARGE","NORAD_CAT_ID":"45581","DECAY_DATE":null,"REV_AT_EPOCH":"10786","PERIOD":"95.593","RA_OF_ASC_NODE":"78.9844","MEAN_MOTION_DOT":"-0.00001090","OBJECT_NAME":"STARLINK-1335","GP_ID":"199778302","EPOCH":"2022-03-26T16:32:43.654560","MEAN_MOTION_DDOT":"0.0000000000000","INCLINATION":"53.0543","REF_FRAME":"TEME","SITE":"AFETR","MEAN_MOTION":"15.06392141","ELEMENT_SET_NO":"999","MEAN_ELEMENT_THEORY":"SGP4","ECCENTRICITY":"0.00016780"},{"BSTAR":"0.00008290700000","FILE":"3375650","EPHEMERIS_TYPE":"0","SEMIMAJOR_AXIS":"6925.346","OBJECT_TYPE":"PAYLOAD","APOAPSIS":"548.345","PERIAPSIS":"546.078","MEAN_ANOMALY":"306.2599","TLE_LINE2":"2 45582  53.0555  78.8804 0001637  53.8541 306.2599 15.06400694107868","OBJECT_ID":"2020-025BD","LAUNCH_DATE":"2020-04-22","CLASSIFICATION_TYPE":"U","TIME_SYSTEM":"UTC","COUNTRY_CODE":"US","MEAN_ELEMENT_THEORY":"SGP4","ECCENTRICITY":"0.00016370","ELEMENT_SET_NO":"999","MEAN_MOTION":"15.06400694","REF_FRAME":"TEME","SITE":"AFETR","INCLINATION":"53.0555","EPOCH":"2022-03-26T17:04:33.624192","GP_ID":"199778052","OBJECT_NAME":"STARLINK-1337","MEAN_MOTION_DDOT":"0.0000000000000","NORAD_CAT_ID":"45582","RA_OF_ASC_NODE":"78.8804","PERIOD":"95.592","MEAN_MOTION_DOT":"0.00000954","DECAY_DATE":null,"REV_AT_EPOCH":"10786","ARG_OF_PERICENTER":"53.8541","TLE_LINE1":"1 45582U 20025BD  22085.71150028  .00000954  00000-0  82907-4 0  9992","RCS_SIZE":"LARGE","CENTER_NAME":"EARTH"},{"RCS_SIZE":"LARGE","CENTER_NAME":"EARTH","ARG_OF_PERICENTER":"43.4424","TLE_LINE1":"1 45583U 20025BE  22085.69307092  .00002410  00000-0  18064-3 0  9996","MEAN_MOTION_DOT":"0.00002410","PERIOD":"95.592","RA_OF_ASC_NODE":"78.9607","DECAY_DATE":null,"REV_AT_EPOCH":"10786","NORAD_CAT_ID":"45583","MEAN_MOTION_DDOT":"0.0000000000000","GP_ID":"199776800","EPOCH":"2022-03-26T16:38:01.327488","OBJECT_NAME":"STARLINK-1340","REF_FRAME":"TEME","SITE":"AFETR","INCLINATION":"53.0535","MEAN_MOTION":"15.06403450","ELEMENT_SET_NO":"999","MEAN_ELEMENT_THEORY":"SGP4","ECCENTRICITY":"0.00023380","COUNTRY_CODE":"US","TIME_SYSTEM":"UTC","CLASSIFICATION_TYPE":"U","TLE_LINE2":"2 45583  53.0535  78.9607 0002338  43.4424 316.6749 15.06403450107868","LAUNCH_DATE":"2020-04-22","OBJECT_ID":"2020-025BE","MEAN_ANOMALY":"316.6749","OBJECT_TYPE":"PAYLOAD","APOAPSIS":"548.822","PERIAPSIS":"545.584","EPHEMERIS_TYPE":"0","SEMIMAJOR_AXIS":"6925.338","BSTAR":"0.00018064000000","FILE":"3375650"},{"TIME_SYSTEM":"UTC","CLASSIFICATION_TYPE":"U","COUNTRY_CODE":"US","TLE_LINE2":"2 45584  53.0570  79.0155 0001514  65.8739 294.2408 15.06394771107868","LAUNCH_DATE":"2020-04-22","OBJECT_ID":"2020-025BF","MEAN_ANOMALY":"294.2408","OBJECT_TYPE":"PAYLOAD","APOAPSIS":"548.278","PERIAPSIS":"546.181","BSTAR":"0.00006655400000","FILE":"3375650","EPHEMERIS_TYPE":"0","SEMIMAJOR_AXIS":"6925.365","MEAN_MOTION_DOT":"0.00000710","PERIOD":"95.592","RA_OF_ASC_NODE":"79.0155","REV_AT_EPOCH":"10786","DECAY_DATE":null,"NORAD_CAT_ID":"45584","RCS_SIZE":"LARGE","CENTER_NAME":"EARTH","ARG_OF_PERICENTER":"65.8739","TLE_LINE1":"1 45584U 20025BF  22085.68201524  .00000710  00000-0  66554-4 0  9998","SITE":"AFETR","REF_FRAME":"TEME","INCLINATION":"53.0570","MEAN_MOTION_DDOT":"0.0000000000000","GP_ID":"199777551","EPOCH":"2022-03-26T16:22:06.116736","OBJECT_NAME":"STARLINK-1343","MEAN_MOTION":"15.06394771","ECCENTRICITY":"0.00015140","MEAN_ELEMENT_THEORY":"SGP4","ELEMENT_SET_NO":"999"},{"BSTAR":"0.00012165000000","FILE":"3375650","EPHEMERIS_TYPE":"0","SEMIMAJOR_AXIS":"6925.339","OBJECT_TYPE":"PAYLOAD","APOAPSIS":"548.379","PERIAPSIS":"546.029","MEAN_ANOMALY":"307.4080","TLE_LINE2":"2 45586  53.0552  78.9231 0001697  52.7064 307.4080 15.06403076107852","LAUNCH_DATE":"2020-04-22","OBJECT_ID":"2020-025BH","CLASSIFICATION_TYPE":"U","TIME_SYSTEM":"UTC","COUNTRY_CODE":"US","ECCENTRICITY":"0.00016970","MEAN_ELEMENT_THEORY":"SGP4","ELEMENT_SET_NO":"999","MEAN_MOTION":"15.06403076","SITE":"AFETR","REF_FRAME":"TEME","INCLINATION":"53.0552","EPOCH":"2022-03-26T16:53:56.679936","GP_ID":"199777802","OBJECT_NAME":"STARLINK-1347","MEAN_MOTION_DDOT":"0.0000000000000","NORAD_CAT_ID":"45586","PERIOD":"95.592","MEAN_MOTION_DOT":"0.00001531","RA_OF_ASC_NODE":"78.9231","REV_AT_EPOCH":"10785","DECAY_DATE":null,"ARG_OF_PERICENTER":"52.7064","TLE_LINE1":"1 45586U 20025BH  22085.70412824  .00001531  00000-0  12165-3 0  9990","RCS_SIZE":"LARGE","CENTER_NAME":"EARTH"},{"ELEMENT_SET_NO":"999","ECCENTRICITY":"0.00018620","MEAN_ELEMENT_THEORY":"SGP4","MEAN_MOTION":"15.06397777","MEAN_MOTION_DDOT":"0.0000000000000","OBJECT_NAME":"STARLINK-1349","GP_ID":"199778553","EPOCH":"2022-03-26T16:11:29.050656","INCLINATION":"53.0547","REF_FRAME":"TEME","SITE":"AFETR","CENTER_NAME":"EARTH","RCS_SIZE":"LARGE","TLE_LINE1":"1 45587U 20025BJ  22085.67464179 -.00001214  00000-0 -62624-4 0  9993","ARG_OF_PERICENTER":"53.0944","DECAY_DATE":null,"REV_AT_EPOCH":"10786","MEAN_MOTION_DOT":"-0.00001214","PERIOD":"95.592","RA_OF_ASC_NODE":"79.0467","NORAD_CAT_ID":"45587","SEMIMAJOR_AXIS":"6925.355","EPHEMERIS_TYPE":"0","BSTAR":"-0.00006262400000","FILE":"3375650","MEAN_ANOMALY":"307.0216","PERIAPSIS":"545.931","APOAPSIS":"548.510","OBJECT_TYPE":"PAYLOAD","OBJECT_ID":"2020-025BJ","LAUNCH_DATE":"2020-04-22","TLE_LINE2":"2 45587  53.0547  79.0467 0001862  53.0944 307.0216 15.06397777107863","COUNTRY_CODE":"US","TIME_SYSTEM":"UTC","CLASSIFICATION_TYPE":"U"},{"ELEMENT_SET_NO":"999","MEAN_ELEMENT_THEORY":"SGP4","ECCENTRICITY":"0.00014700","MEAN_MOTION":"15.06403231","MEAN_MOTION_DDOT":"0.0000000000000","EPOCH":"2022-03-26T14:04:05.857824","GP_ID":"199777301","OBJECT_NAME":"STARLINK-1360","SITE":"AFETR","REF_FRAME":"TEME","INCLINATION":"53.0548","RCS_SIZE":"LARGE","CENTER_NAME":"EARTH","ARG_OF_PERICENTER":"77.7275","TLE_LINE1":"1 45588U 20025BK  22085.58617891  .00001016  00000-0  87058-4 0  9991","MEAN_MOTION_DOT":"0.00001016","PERIOD":"95.592","RA_OF_ASC_NODE":"79.4584","REV_AT_EPOCH":"10784","DECAY_DATE":null,"NORAD_CAT_ID":"45588","EPHEMERIS_TYPE":"0","SEMIMAJOR_AXIS":"6925.339","FILE":"3375650","BSTAR":"0.00008705800000","MEAN_ANOMALY":"282.3878","OBJECT_TYPE":"PAYLOAD","PERIAPSIS":"546.186","APOAPSIS":"548.222","TLE_LINE2":"2 45588  53.0548  79.4584 0001470  77.7275 282.3878 15.06403231107844","OBJECT_ID":"2020-025BK","LAUNCH_DATE":"2020-04-22","COUNTRY_CODE":"US","TIME_SYSTEM":"UTC","CLASSIFICATION_TYPE":"U"},{"ECCENTRICITY":"0.00016150","MEAN_ELEMENT_THEORY":"SGP4","ELEMENT_SET_NO":"999","MEAN_MOTION":"15.06400565","INCLINATION":"53.0545","REF_FRAME":"TEME","SITE":"AFETR","MEAN_MOTION_DDOT":"0.0000000000000","OBJECT_NAME":"STARLINK-1364","EPOCH":"2022-03-26T17:09:52.560288","GP_ID":"199777051","REV_AT_EPOCH":"10786","DECAY_DATE":null,"PERIOD":"95.592","RA_OF_ASC_NODE":"78.8723","MEAN_MOTION_DOT":"-0.00000165","NORAD_CAT_ID":"45589","CENTER_NAME":"EARTH","RCS_SIZE":"LARGE","TLE_LINE1":"1 45589U 20025BL  22085.71519167 -.00000165  00000-0  78086-5 0  9991","ARG_OF_PERICENTER":"61.6732","BSTAR":"0.00000780860000","FILE":"3375650","SEMIMAJOR_AXIS":"6925.347","EPHEMERIS_TYPE":"0","MEAN_ANOMALY":"298.4419","PERIAPSIS":"546.093","APOAPSIS":"548.330","OBJECT_TYPE":"PAYLOAD","LAUNCH_DATE":"2020-04-22","OBJECT_ID":"2020-025BL","TLE_LINE2":"2 45589  53.0545  78.8723 0001615  61.6732 298.4419 15.06400565107869","TIME_SYSTEM":"UTC","CLASSIFICATION_TYPE":"U","COUNTRY_CODE":"US"},{"MEAN_ANOMALY":"303.0898","PERIAPSIS":"546.043","APOAPSIS":"548.450","OBJECT_TYPE":"PAYLOAD","SEMIMAJOR_AXIS":"6925.382","EPHEMERIS_TYPE":"0","BSTAR":"0.00000190530000","FILE":"3375650","COUNTRY_CODE":"US","TIME_SYSTEM":"UTC","CLASSIFICATION_TYPE":"U","LAUNCH_DATE":"2020-04-22","OBJECT_ID":"2020-025BM","TLE_LINE2":"2 45590  53.0536 108.2124 0001738  57.0258 303.0898 15.06389178107480","MEAN_MOTION":"15.06389178","ELEMENT_SET_NO":"999","MEAN_ELEMENT_THEORY":"SGP4","ECCENTRICITY":"0.00017380","CENTER_NAME":"EARTH","RCS_SIZE":"LARGE","TLE_LINE1":"1 45590U 20025BM  22085.86355394 -.00000253  00000-0  19053-5 0  9996","ARG_OF_PERICENTER":"57.0258","REV_AT_EPOCH":"10748","DECAY_DATE":null,"MEAN_MOTION_DOT":"-0.00000253","PERIOD":"95.593","RA_OF_ASC_NODE":"108.2124","NORAD_CAT_ID":"45590","MEAN_MOTION_DDOT":"0.0000000000000","OBJECT_NAME":"STARLINK-1365","GP_ID":"199778303","EPOCH":"2022-03-26T20:43:31.060416","INCLINATION":"53.0536","SITE":"AFETR","REF_FRAME":"TEME"}];
